KUIPER-00152            
1 65772U 25217L   26013.16672453  .00014455  00000+0  13889-2 0  9999
2 65772  51.8951 276.7010 0005511 217.3266  87.8850 14.93226336  5224
KUIPER-00153            
1 65773U 25217M   26013.16870696  .00007647  00000+0  45505-3 0  9995
2 65773  51.8777 286.0270 0013261 131.7991 228.4120 15.12077228 16690
KUIPER-00155            
1 65774U 25217N   26013.13188816  .00011364  00000+0  51020-3 0  9999
2 65774  51.8776 274.0869 0006614 135.5130 224.6382 15.21605315 16852
KUIPER-00156            
1 65775U 25217P   26013.16672453 -.00001461  00000+0 -75611-4 0  9990
2 65775  51.8849 273.4863 0002379 200.2066 141.8245 15.07929047  4741
KUIPER-00158            
1 65776U 25217Q   26013.17107339  .00006409  00000+0  86928-3 0  9995
2 65776  51.8985 291.0943 0001350  91.4858 268.6259 14.79916375 16626
KUIPER-00163            
1 65777U 25217R   26013.16822671 -.00001092  00000+0 -11426-3 0  9994
2 65777  51.8987 293.6098 0001043  95.4093 264.6989 14.79939867 16584
KUIPER-00165            
1 65778U 25217S   26013.15739728  .00003294  00000+0  42596-3 0  9990
2 65778  51.9003 281.2611 0005483 166.6790 193.4320 14.83307066 16758
KUIPER-00166            
1 65779U 25217T   26013.16672453  .00053995  00000+0  23298-2 0  9993
2 65779  51.8755 272.6502 0003288 129.3914 290.0301 15.22002142  5347
